OBJECT_NAME,OBJECT_ID,EPOCH,MEAN_MOTION,ECCENTRICITY,INCLINATION,RA_OF_ASC_NODE,ARG_OF_PERICENTER,MEAN_ANOMALY,EPHEMERIS_TYPE,CLASSIFICATION_TYPE,NORAD_CAT_ID,ELEMENT_SET_NO,REV_AT_EPOCH,BSTAR,MEAN_MOTION_DOT,MEAN_MOTION_DDOT
STARLINK-5137,2022-125M,2026-06-05T08:37:41.487744,15.08738224,.00019821,53.1780,185.1037,35.5843,324.5281,0,U,53975,999,20263,-.12609602E-3,-.2289E-4,0
STARLINK-5134,2022-125N,2026-06-05T08:10:33.576096,15.08830460,.00013129,53.1780,170.7331,89.3665,270.7477,0,U,53976,999,20283,.31160359E-4,.208E-5,0
STARLINK-5094,2022-125P,2026-06-05T08:16:29.887968,15.08850428,.00012279,53.1887,185.7124,82.8419,277.2713,0,U,53977,999,20262,.17067262E-3,.243E-4,0
STARLINK-5148,2022-125Q,2026-06-05T09:25:21.567072,15.08832332,.00013853,53.1773,185.2809,100.5162,259.5986,0,U,53978,999,20263,.36025945E-4,.285E-5,0
STARLINK-5123,2022-125R,2026-06-05T15:57:30.716640,15.08836324,.00012348,53.1756,184.1402,101.9009,258.2121,0,U,53979,999,20267,.49359207E-4,.498E-5,0
STARLINK-5133,2022-125S,2026-06-05T08:58:49.787904,15.08864870,.00010249,53.1764,185.1850,62.8542,297.2555,0,U,53980,999,20263,-.25189743E-3,-.4297E-4,0
STARLINK-5149,2022-125T,2026-06-05T07:22:47.372736,15.08836421,.00015522,53.1800,170.5365,74.6746,285.4417,0,U,53981,999,20283,-.2278793E-5,-.324E-5,0
STARLINK-5120,2022-125U,2026-06-05T08:03:53.345376,15.08864101,.00018215,53.1895,180.6742,92.6389,267.4812,0,U,53982,999,20268,.27976902E-3,.417E-4,0
STARLINK-5142,2022-125W,2026-06-05T08:19:48.747936,15.08844414,.00015728,53.1880,180.7384,84.5221,275.5950,0,U,53984,999,20269,.94108277E-4,.121E-4,0
STARLINK-5147,2022-125X,2026-06-05T13:16:35.881248,15.08813914,.0001127,53.1744,179.8930,91.9140,268.1981,0,U,53985,999,20272,.22341463E-3,.3267E-4,0
STARLINK-5119,2022-125Y,2026-06-04T05:46:00.459840,15.08835872,.00012973,53.1821,175.2297,61.1146,298.9976,0,U,53986,999,20266,.2597462E-4,.125E-5,0
STARLINK-5113,2022-125AA,2026-06-05T08:14:32.313984,15.08828963,.00016536,53.1877,180.7142,89.4266,270.6915,0,U,53988,999,20268,-.4912495E-5,-.366E-5,0
STARLINK-5118,2022-125AD,2026-06-06T01:23:51.466848,15.08787458,.00015962,53.1753,167.3208,77.7956,282.3215,0,U,53991,999,20293,.58424731E-3,.9009E-4,0
STARLINK-5108,2022-125AE,2026-06-05T07:58:35.416704,15.08838732,.00011823,53.1765,180.6165,86.4701,273.6426,0,U,53992,999,20268,.68231409E-4,.798E-5,0
STARLINK-5121,2022-125AF,2026-06-05T09:00:10.920096,15.08834704,.00007572,53.1765,175.2087,89.7952,270.3126,0,U,53993,999,20276,-.6188125E-5,-.386E-5,0
STARLINK-5125,2022-125AG,2026-06-05T09:18:03.913920,15.08835936,.00011094,53.1759,180.2801,85.2924,274.8194,0,U,53994,999,20270,.26300971E-4,.131E-5,0
STARLINK-5097,2022-125AH,2026-06-05T07:53:18.334752,15.08835575,.00010115,53.1791,180.6267,85.9198,274.1909,0,U,53995,999,20268,.71134643E-4,.844E-5,0
STARLINK-5131,2022-125AJ,2026-06-05T09:12:45.732960,15.08838527,.00013187,53.1768,180.2458,75.1546,284.9592,0,U,53996,999,20270,-.23761075E-4,-.666E-5,0
STARLINK-5130,2022-125AK,2026-06-06T00:00:02.999808,15.08819353,.00012514,53.1711,167.8747,88.9406,194.6841,0,U,53997,999,571,.22232947E-2,.35254E-3,0
STARLINK-5128,2022-125AL,2026-06-05T07:26:45.879072,15.08833999,.00017641,53.1780,180.4892,38.5969,321.5148,0,U,53998,999,20269,-.225745E-6,-.292E-5,0
STARLINK-5079,2022-125AM,2026-06-05T09:23:22.222752,15.08837870,.00012278,53.1755,180.3019,86.7627,273.3505,0,U,53999,999,20270,.67706311E-4,.79E-5,0
STARLINK-5088,2022-125AN,2026-06-05T08:21:20.522880,15.08691590,.00040658,53.1871,170.7872,48.9208,311.2134,0,U,54000,999,20283,-.11949086E-2,-.19182E-3,0
STARLINK-5109,2022-125AQ,2026-06-05T07:17:25.009152,15.08889389,.00031544,53.1839,170.4889,38.3943,321.7273,0,U,54002,999,20283,.46869284E-3,.7189E-4,0
STARLINK-5114,2022-125AR,2026-06-05T09:07:27.338592,15.08845954,.00012179,53.1758,180.2202,68.6026,291.5096,0,U,54003,999,20270,-.3449508E-5,-.343E-5,0
STARLINK-5129,2022-125AS,2026-06-05T08:51:31.531680,15.08845743,.00013283,53.1825,180.1662,94.5453,265.5690,0,U,54004,999,20270,-.1468662E-3,-.2625E-4,0
STARLINK-5135,2022-125AT,2026-06-05T08:56:50.481600,15.08837086,.00012397,53.1764,180.1728,94.1798,265.9336,0,U,54005,999,20270,-.3154255E-4,-.79E-5,0
STARLINK-5096,2022-125AU,2026-06-05T13:21:46.702656,15.08834324,.00012798,53.1797,179.2186,55.0674,305.0438,0,U,54006,999,20272,-.18926182E-4,-.589E-5,0
STARLINK-5132,2022-125AV,2026-06-05T08:46:13.880352,15.08835404,.00012361,53.1776,180.1440,90.2693,269.8441,0,U,54007,999,20270,-.8202061E-5,-.418E-5,0
STARLINK-5145,2022-125AW,2026-06-05T08:42:15.192576,15.08840081,.00015772,53.1790,170.1542,96.4684,263.6487,0,U,54008,999,20284,-.2204735E-4,-.639E-5,0
STARLINK-5099,2022-125AX,2026-06-05T08:40:55.369344,15.08839802,.00014109,53.1777,180.1183,115.1225,244.9913,0,U,54009,999,20270,-.10631408E-3,-.198E-4,0
