STARLINK-5137           
1 53975U 22125M   26156.35950796 -.00002289  00000+0 -12610-3 0  9990
2 53975  53.1780 185.1037 0001982  35.5843 324.5281 15.08738224202636
STARLINK-5134           
1 53976U 22125N   26156.34066639  .00000208  00000+0  31160-4 0  9993
2 53976  53.1780 170.7331 0001312  89.3665 270.7477 15.08830460202836
STARLINK-5094           
1 53977U 22125P   26156.34479037  .00002430  00000+0  17067-3 0  9992
2 53977  53.1887 185.7124 0001227  82.8419 277.2713 15.08850428202629
STARLINK-5148           
1 53978U 22125Q   26156.39261073  .00000285  00000+0  36026-4 0  9990
2 53978  53.1773 185.2809 0001385 100.5162 259.5986 15.08832332202637
STARLINK-5123           
1 53979U 22125R   26156.66493885  .00000498  00000+0  49359-4 0  9998
2 53979  53.1756 184.1402 0001234 101.9009 258.2121 15.08836324202670
STARLINK-5133           
1 53980U 22125S   26156.37418736 -.00004297  00000+0 -25190-3 0  9999
2 53980  53.1764 185.1850 0001024  62.8542 297.2555 15.08864870202630
STARLINK-5149           
1 53981U 22125T   26156.30749274 -.00000324  00000+0 -22788-5 0  9996
2 53981  53.1800 170.5365 0001552  74.6746 285.4417 15.08836421202833
STARLINK-5120           
1 53982U 22125U   26156.33603409  .00004170  00000+0  27977-3 0  9993
2 53982  53.1895 180.6742 0001821  92.6389 267.4812 15.08864101202689
STARLINK-5142           
1 53984U 22125W   26156.34709199  .00001210  00000+0  94108-4 0  9992
2 53984  53.1880 180.7384 0001572  84.5221 275.5950 15.08844414202695
STARLINK-5147           
1 53985U 22125X   26156.55319307  .00003267  00000+0  22341-3 0  9997
2 53985  53.1744 179.8930 0001127  91.9140 268.1981 15.08813914202726
STARLINK-5119           
1 53986U 22125Y   26155.24028310  .00000125  00000+0  25975-4 0  9991
2 53986  53.1821 175.2297 0001297  61.1146 298.9976 15.08835872202667
STARLINK-5113           
1 53988U 22125AA  26156.34342956 -.00000366  00000+0 -49125-5 0  9993
2 53988  53.1877 180.7142 0001653  89.4266 270.6915 15.08828963202687
STARLINK-5118           
1 53991U 22125AD  26157.05823457  .00009009  00000+0  58425-3 0  9998
2 53991  53.1753 167.3208 0001596  77.7956 282.3215 15.08787458202934
STARLINK-5108           
1 53992U 22125AE  26156.33235436  .00000798  00000+0  68231-4 0  9996
2 53992  53.1765 180.6165 0001182  86.4701 273.6426 15.08838732202685
STARLINK-5121           
1 53993U 22125AF  26156.37512639 -.00000386  00000+0 -61881-5 0  9994
2 53993  53.1765 175.2087 0000757  89.7952 270.3126 15.08834704202765
STARLINK-5125           
1 53994U 22125AG  26156.38754530  .00000131  00000+0  26301-4 0  9997
2 53994  53.1759 180.2801 0001109  85.2924 274.8194 15.08835936202707
STARLINK-5097           
1 53995U 22125AH  26156.32868443  .00000844  00000+0  71135-4 0  9997
2 53995  53.1791 180.6267 0001011  85.9198 274.1909 15.08835575202689
STARLINK-5131           
1 53996U 22125AJ  26156.38386265 -.00000666  00000+0 -23761-4 0  9997
2 53996  53.1768 180.2458 0001318  75.1546 284.9592 15.08838527202700
STARLINK-5130           
1 53997U 22125AK  26157.00003472  .00035254  00000+0  22233-2 0  9994
2 53997  53.1711 167.8747 0001251  88.9406 194.6841 15.08819353  5716
STARLINK-5128           
1 53998U 22125AL  26156.31025323 -.00000292  00000+0 -22574-6 0  9995
2 53998  53.1780 180.4892 0001764  38.5969 321.5148 15.08833999202698
STARLINK-5079           
1 53999U 22125AM  26156.39122943  .00000790  00000+0  67706-4 0  9995
2 53999  53.1755 180.3019 0001227  86.7627 273.3505 15.08837870202706
STARLINK-5088           
1 54000U 22125AN  26156.34815420 -.00019182  00000+0 -11949-2 0  9996
2 54000  53.1871 170.7872 0004065  48.9208 311.2134 15.08691590202838
STARLINK-5109           
1 54002U 22125AQ  26156.30376168  .00007189  00000+0  46869-3 0  9997
2 54002  53.1839 170.4889 0003154  38.3943 321.7273 15.08889389202831
STARLINK-5114           
1 54003U 22125AR  26156.38017753 -.00000343  00000+0 -34495-5 0  9999
2 54003  53.1758 180.2202 0001217  68.6026 291.5096 15.08845954202709
STARLINK-5129           
1 54004U 22125AS  26156.36911495 -.00002625  00000+0 -14687-3 0  9998
2 54004  53.1825 180.1662 0001328  94.5453 265.5690 15.08845743202706
STARLINK-5135           
1 54005U 22125AT  26156.37280650 -.00000790  00000+0 -31543-4 0  9994
2 54005  53.1764 180.1728 0001239  94.1798 265.9336 15.08837086202703
STARLINK-5096           
1 54006U 22125AU  26156.55679054 -.00000589  00000+0 -18926-4 0  9991
2 54006  53.1797 179.2186 0001279  55.0674 305.0438 15.08834324202723
STARLINK-5132           
1 54007U 22125AV  26156.36543843 -.00000418  00000+0 -82021-5 0  9996
2 54007  53.1776 180.1440 0001236  90.2693 269.8441 15.08835404202709
STARLINK-5145           
1 54008U 22125AW  26156.36267584 -.00000639  00000+0 -22047-4 0  9998
2 54008  53.1790 170.1542 0001577  96.4684 263.6487 15.08840081202848
STARLINK-5099           
1 54009U 22125AX  26156.36175196 -.00001980  00000+0 -10631-3 0  9991
2 54009  53.1777 180.1183 0001410 115.1225 244.9913 15.08839802202702
